SENTINEL-6              
1 46984U 20086A   23208.34267818 -.00000049  00000+0  52371-4 0  9996
2 46984  66.0401 168.0520 0008057 269.1541  90.8551 12.80930781125229
